[{"OBJECT_NAME":"STARLINK-3857","OBJECT_ID":"2022-049AV","EPOCH":"2026-03-09T22:36:22.342464","MEAN_MOTION":15.08841008,"ECCENTRICITY":0.00014368,"INCLINATION":53.2181,"RA_OF_ASC_NODE":47.9856,"ARG_OF_PERICENTER":90.111,"MEAN_ANOMALY":270.0047,"EPHEMERIS_TYPE":0,"CLASSIFICATION_TYPE":"U","NORAD_CAT_ID":52494,"ELEMENT_SET_NO":999,"REV_AT_EPOCH":21243,"BSTAR":1.9642158e-5,"MEAN_MOTION_DOT":2.5e-7,"MEAN_MOTION_DDOT":0},{"OBJECT_NAME":"CZ-4B DEB","OBJECT_ID":"2004-035K","EPOCH":"2026-03-08T06:51:30.377664","MEAN_MOTION":15.09293825,"ECCENTRICITY":0.00031468,"INCLINATION":97.5843,"RA_OF_ASC_NODE":91.2716,"ARG_OF_PERICENTER":107.6302,"MEAN_ANOMALY":252.527,"EPHEMERIS_TYPE":0,"CLASSIFICATION_TYPE":"U","NORAD_CAT_ID":29043,"ELEMENT_SET_NO":999,"REV_AT_EPOCH":10418,"BSTAR":0.00031897975,"MEAN_MOTION_DOT":5.021e-5,"MEAN_MOTION_DDOT":0}]
